NORAD_CAT_ID,OBJECT_NAME,OBJECT_TYPE,EPOCH,MEAN_MOTION,ECCENTRICITY,INCLINATION,RA_OF_ASC_NODE,ARG_OF_PERICENTER,MEAN_ANOMALY,BSTAR,MEAN_MOTION_DOT,MEAN_MOTION_DDOT,TLE_LINE0,TLE_LINE1,TLE_LINE2,SEMIMAJOR_AXIS,PERIOD,APOGEE,PERIGEE,DECAYED
53732.0,STARLINK-4661,PAYLOAD,2024-07-15 09:02:29,15.08848558,0.0001269,53.2181,78.0946,95.6281,264.4855,5.0835e-05,5.21e-06,0.0,0 STARLINK-4661,1 53732U 22107AJ  24197.37673502  .00000521  00000-0  50835-4 0  9991,2 53732  53.2181  78.0946 0001269  95.6281 264.4855 15.08848558103027,6917.854,95.437,540.597,538.841,0.0
53732.0,STARLINK-4661,PAYLOAD,2024-07-15 20:10:12,15.08834272,0.0001882,53.2182,76.014,94.4947,265.626,-2.5956e-05,-7.01e-06,0.0,0 STARLINK-4661,1 53732U 22107AJ  24197.84042562 -.00000701  00000-0 -25956-4 0  9997,2 53732  53.2182  76.0140 0001882  94.4947 265.6260 15.08834272103097,6917.898,95.438,541.065,538.461,0.0
53732.0,STARLINK-4661,PAYLOAD,2024-07-15 21:45:36,15.08832823,0.0001648,53.2192,75.717,98.5927,261.5252,5.1033e-06,-2.07e-06,0.0,0 STARLINK-4661,1 53732U 22107AJ  24197.90667058 -.00000207  00000-0  51033-5 0  9993,2 53732  53.2192  75.7170 0001648  98.5927 261.5252 15.08832823103704,6917.902,95.438,540.907,538.627,0.0
53732.0,STARLINK-4661,PAYLOAD,2024-07-15 23:20:59,15.08834485,0.0001453,53.218,75.4177,95.9777,264.1381,1.2494e-05,-8.9e-07,0.0,0 STARLINK-4661,1 53732U 22107AJ  24197.97290917 -.00000089  00000-0  12494-4 0  9991,2 53732  53.2180  75.4177 0001453  95.9777 264.1381 15.08834485103712,6917.897,95.438,540.767,538.757,0.0
53732.0,STARLINK-4661,PAYLOAD,2024-07-16 21:36:22,15.08844333,0.0001451,53.2181,71.2546,69.694,290.4208,8.4873e-05,1.063e-05,0.0,0 STARLINK-4661,1 53732U 22107AJ  24198.90026487  .00001063  00000-0  84873-4 0  9996,2 53732  53.2181  71.2546 0001451  69.6940 290.4208 15.08844333103257,6917.867,95.437,540.736,538.728,0.0
53732.0,STARLINK-4661,PAYLOAD,2024-07-17 08:44:04,15.08837734,0.0001353,53.2161,69.1717,85.7609,274.3537,2.9046e-05,1.74e-06,0.0,0 STARLINK-4661,1 53732U 22107AJ  24199.36394603  .00000174  00000-0  29046-4 0  9998,2 53732  53.2161  69.1717 0001353  85.7609 274.3537 15.08837734103920,6917.887,95.438,540.688,538.816,0.0
53732.0,STARLINK-4661,PAYLOAD,2024-07-17 21:27:10,15.08834798,0.0001305,53.2173,66.79,92.8429,267.2712,3.8156e-05,3.19e-06,0.0,0 STARLINK-4661,1 53732U 22107AJ  24199.89387137  .00000319  00000-0  38156-4 0  9993,2 53732  53.2173  66.7900 0001305  92.8429 267.2712 15.08834798103402,6917.896,95.438,540.664,538.859,0.0
53732.0,STARLINK-4661,PAYLOAD,2024-07-18 08:34:52,15.08839312,0.0001382,53.2181,64.71,89.9154,270.1997,0.00013868,1.92e-05,0.0,0 STARLINK-4661,1 53732U 22107AJ  24200.35755130  .00001920  00000-0  13868-3 0  9990,2 53732  53.2181  64.7100 0001382  89.9154 270.1997 15.08839312104077,6917.882,95.438,540.704,538.791,0.0
53732.0,STARLINK-4661,PAYLOAD,2024-07-18 21:17:57,15.08842945,0.0001438,53.2171,62.3316,93.7237,266.392,3.5255e-05,2.73e-06,0.0,0 STARLINK-4661,1 53732U 22107AJ  24200.88747118  .00000273  00000-0  35255-4 0  9990,2 53732  53.2171  62.3316 0001438  93.7237 266.3920 15.08842945104154,6917.871,95.437,540.731,538.742,0.0
53732.0,STARLINK-4661,PAYLOAD,2024-07-19 00:28:43,15.08847228,0.0001497,53.2174,61.732,107.5892,252.5264,9.8682e-05,1.283e-05,0.0,0 STARLINK-4661,1 53732U 22107AJ  24201.01994748  .00001283  00000-0  98682-4 0  9994,2 53732  53.2174  61.7320 0001497 107.5892 252.5264 15.08847228103573,6917.858,95.437,540.759,538.688,0.0
53732.0,STARLINK-4661,PAYLOAD,2024-07-19 08:25:39,15.08841281,0.0001537,53.2174,60.2432,112.8489,247.2666,3.6616e-05,2.95e-06,0.0,0 STARLINK-4661,1 53732U 22107AJ  24201.35115092  .00000295  00000-0  36616-4 0  9999,2 53732  53.2174  60.2432 0001537 112.8489 247.2666 15.08841281103623,6917.876,95.437,540.805,538.678,0.0
53732.0,STARLINK-4661,PAYLOAD,2024-07-19 21:08:44,15.08840255,0.0001267,53.2173,57.8674,89.3167,270.797,0.00017994,2.577e-05,0.0,0 STARLINK-4661,1 53732U 22107AJ  24201.88107279  .00002577  00000-0  17994-3 0  9997,2 53732  53.2173  57.8674 0001267  89.3167 270.7970 15.08840255104308,6917.88,95.438,540.621,538.868,0.0
53732.0,STARLINK-4661,PAYLOAD,2024-07-20 00:19:30,15.08847613,0.0001296,53.2183,57.2739,99.1592,260.9546,0.0001434,1.996e-05,0.0,0 STARLINK-4661,1 53732U 22107AJ  24202.01354832  .00001996  00000-0  14340-3 0  9998,2 53732  53.2183  57.2739 0001296  99.1592 260.9546 15.08847613104325,6917.857,95.437,540.619,538.826,0.0
53732.0,STARLINK-4661,PAYLOAD,2024-07-20 20:59:31,15.08846051,0.0001155,53.2166,53.4063,92.789,267.3235,0.00015405,2.165e-05,0.0,0 STARLINK-4661,1 53732U 22107AJ  24202.87466933  .00002165  00000-0  15405-3 0  9990,2 53732  53.2166  53.4063 0001155  92.7890 267.3235 15.08846051103856,6917.862,95.437,540.526,538.928,0.0
53732.0,STARLINK-4661,PAYLOAD,2024-07-21 06:31:50,15.08847925,0.0001151,53.2168,51.6255,86.2415,273.8709,7.3674e-05,8.85e-06,0.0,0 STARLINK-4661,1 53732U 22107AJ  24203.27210713  .00000885  00000-0  73674-4 0  9998,2 53732  53.2168  51.6255 0001151  86.2415 273.8709 15.08847925104511,6917.856,95.437,540.517,538.925,0.0
53732.0,STARLINK-4661,PAYLOAD,2024-07-21 19:14:55,15.08835672,0.0001399,53.2186,49.2534,91.218,268.8973,1.2188e-05,-9.4e-07,0.0,0 STARLINK-4661,1 53732U 22107AJ  24203.80203593 -.00000094  00000-0  12188-4 0  9991,2 53732  53.2186  49.2534 0001399  91.2180 268.8973 15.08835672103997,6917.894,95.438,540.726,538.791,0.0
53732.0,STARLINK-4661,PAYLOAD,2024-07-22 22:16:28,15.08848766,0.0001257,53.2183,44.1945,93.9904,266.1232,0.00011502,1.544e-05,0.0,0 STARLINK-4661,1 53732U 22107AJ  24204.92810949  .00001544  00000-0  11502-3 0  9992,2 53732  53.2183  44.1945 0001257  93.9904 266.1232 15.08848766104763,6917.854,95.437,540.588,538.849,0.0
53732.0,STARLINK-4661,PAYLOAD,2024-07-23 06:13:24,15.08840245,0.0001358,53.2177,42.7059,87.8576,272.2572,1.4024e-05,-6.5e-07,0.0,0 STARLINK-4661,1 53732U 22107AJ  24205.25931312 -.00000065  00000-0  14024-4 0  9998,2 53732  53.2177  42.7059 0001358  87.8576 272.2572 15.08840245104214,6917.88,95.438,540.684,538.805,0.0
53732.0,STARLINK-4661,PAYLOAD,2024-07-23 22:07:16,15.08840943,0.0001236,53.2168,39.7296,81.7728,278.3404,3.8792e-05,3.3e-06,0.0,0 STARLINK-4661,1 53732U 22107AJ  24205.92171336  .00000330  00000-0  38792-4 0  9996,2 53732  53.2168  39.7296 0001236  81.7728 278.3404 15.08840943104913,6917.878,95.437,540.598,538.887,0.0
53732.0,STARLINK-4661,PAYLOAD,2024-07-24 12:25:44,15.08839441,0.0001348,53.2185,37.057,88.1197,271.9949,1.3247e-05,-7.7e-07,0.0,0 STARLINK-4661,1 53732U 22107AJ  24206.51787677 -.00000077  00000-0  13247-4 0  9990,2 53732  53.2185  37.0570 0001348  88.1197 271.9949 15.08839441104401,6917.882,95.438,540.68,538.815,0.0
53732.0,STARLINK-4661,PAYLOAD,2024-07-24 21:58:03,15.08839005,0.0001651,53.2121,35.2714,85.1174,275.0007,0.00011098,1.479e-05,0.0,0 STARLINK-4661,1 53732U 22107AJ  24206.91531839  .00001479  00000-0  11098-3 0  9998,2 53732  53.2121  35.2714 0001651  85.1174 275.0007 15.08839005105069,6917.883,95.438,540.891,538.606,0.0
53732.0,STARLINK-4661,PAYLOAD,2024-07-25 12:16:31,15.08842223,0.0001717,53.2138,32.5953,87.0707,273.0482,0.00010707,1.416e-05,0.0,0 STARLINK-4661,1 53732U 22107AJ  24207.51147699  .00001416  00000-0  10707-3 0  9999,2 53732  53.2138  32.5953 0001717  87.0707 273.0482 15.08842223105159,6917.874,95.437,540.926,538.551,0.0
53732.0,STARLINK-4661,PAYLOAD,2024-07-25 23:24:13,15.08844263,0.0001785,53.2153,30.5149,89.0431,271.0766,0.00012396,1.686e-05,0.0,0 STARLINK-4661,1 53732U 22107AJ  24207.97515367  .00001686  00000-0  12396-3 0  9995,2 53732  53.2153  30.5149 0001785  89.0431 271.0766 15.08844263104622,6917.867,95.437,540.967,538.498,0.0
53732.0,STARLINK-4661,PAYLOAD,2024-07-26 05:45:46,15.08834396,0.0001916,53.2136,29.327,75.1858,284.9346,3.0406e-05,1.96e-06,0.0,0 STARLINK-4661,1 53732U 22107AJ  24208.24012287  .00000196  00000-0  30406-4 0  9997,2 53732  53.2136  29.3270 0001916  75.1858 284.9346 15.08834396104666,6917.898,95.438,541.088,538.437,0.0
53732.0,STARLINK-4661,PAYLOAD,2024-07-26 18:28:51,15.08841284,0.0001219,53.2224,26.9479,99.2455,260.8675,5.973e-05,6.63e-06,0.0,0 STARLINK-4661,1 53732U 22107AJ  24208.77003527  .00000663  00000-0  59730-4 0  9992,2 53732  53.2224  26.9479 0001219  99.2455 260.8675 15.08841284104745,6917.876,95.437,540.585,538.898,0.0
53732.0,STARLINK-4661,PAYLOAD,2024-07-26 21:39:36,15.0885326,0.0001197,53.2186,26.3497,91.2367,268.8762,9.3977e-05,1.209e-05,0.0,0 STARLINK-4661,1 53732U 22107AJ  24208.90250554  .00001209  00000-0  93977-4 0  9999,2 53732  53.2186  26.3497 0001197  91.2367 268.8762 15.08853260105366,6917.84,95.437,540.533,538.877,0.0
53732.0,STARLINK-4661,PAYLOAD,2024-07-26 23:14:59,15.08850976,0.000158,53.219,26.0549,85.66,274.4573,0.0001517,2.128e-05,0.0,0 STARLINK-4661,1 53732U 22107AJ  24208.96874700  .00002128  00000-0  15170-3 0  9999,2 53732  53.2190  26.0549 0001580  85.6600 274.4573 15.08850976104777,6917.847,95.437,540.805,538.619,0.0
53732.0,STARLINK-4661,PAYLOAD,2024-07-27 11:58:05,15.08835319,0.0002103,53.2119,23.677,88.1888,271.9345,4.4607e-05,4.22e-06,0.0,0 STARLINK-4661,1 53732U 22107AJ  24209.49867955  .00000422  00000-0  44607-4 0  9995,2 53732  53.2119  23.6770 0002103  88.1888 271.9345 15.08835319104857,6917.895,95.438,541.215,538.305,0.0
53732.0,STARLINK-4661,PAYLOAD,2024-07-27 21:30:24,15.08838087,0.0001765,53.2156,21.8891,98.4144,261.7049,-6.3013e-06,-3.88e-06,0.0,0 STARLINK-4661,1 53732U 22107AJ  24209.89612016 -.00000388  00000-0 -63013-5 0  9991,2 53732  53.2156  21.8891 0001765  98.4144 261.7049 15.08838087105511,6917.886,95.438,540.972,538.53,0.0
53732.0,STARLINK-4661,PAYLOAD,2024-07-28 19:45:47,15.08851775,0.0001415,53.2186,17.7263,105.0284,255.0864,3.9954e-05,3.48e-06,0.0,0 STARLINK-4661,1 53732U 22107AJ  24210.82347041  .00000348  00000-0  39954-4 0  9999,2 53732  53.2186  17.7263 0001415 105.0284 255.0864 15.08851775105052,6917.844,95.437,540.688,538.731,0.0
